[{"OBJECT_NAME":"STARLINK-32927","OBJECT_ID":"2025-037T","EPOCH":"2026-03-09T22:09:31.516416","MEAN_MOTION":14.98326947,"ECCENTRICITY":0.00029684,"INCLINATION":70.0035,"RA_OF_ASC_NODE":354.001,"ARG_OF_PERICENTER":263.37,"MEAN_ANOMALY":96.7121,"EPHEMERIS_TYPE":0,"CLASSIFICATION_TYPE":"U","NORAD_CAT_ID":63094,"ELEMENT_SET_NO":999,"REV_AT_EPOCH":5858,"BSTAR":-0.00010734745,"MEAN_MOTION_DOT":-1.373e-5,"MEAN_MOTION_DDOT":0},{"OBJECT_NAME":"UNKNOWN","OBJECT_ID":"","EPOCH":"2026-03-08T22:30:59.703264","MEAN_MOTION":13.46257965,"ECCENTRICITY":0.070873,"INCLINATION":65.7288,"RA_OF_ASC_NODE":48.7928,"ARG_OF_PERICENTER":101.8179,"MEAN_ANOMALY":266.3198,"EPHEMERIS_TYPE":0,"CLASSIFICATION_TYPE":"U","NORAD_CAT_ID":87051,"ELEMENT_SET_NO":999,"REV_AT_EPOCH":60018,"BSTAR":0.00070028,"MEAN_MOTION_DOT":1.94e-5,"MEAN_MOTION_DDOT":0}]
